CCSDS_OMM_VERS = 2.0
CREATION_DATE  = 
ORIGINATOR     = 

OBJECT_NAME    = GSLV R/B
OBJECT_ID      = 2022-138AN
CENTER_NAME    = EARTH
REF_FRAME      = TEME
TIME_SYSTEM    = UTC
MEAN_ELEMENT_THEORY = SGP/SGP4

EPOCH          = 2026-02-26T18:08:51.198432
MEAN_MOTION    = 14.96679584
ECCENTRICITY   = .0021466
INCLINATION    = 87.3876
RA_OF_ASC_NODE = 170.0209
ARG_OF_PERICENTER = 185.0672
MEAN_ANOMALY   = 175.0346

EPHEMERIS_TYPE = 0
CLASSIFICATION_TYPE = U
NORAD_CAT_ID   = 54149
ELEMENT_SET_NO = 999
REV_AT_EPOCH   = 18229
BSTAR          = .26958E-3
MEAN_MOTION_DOT = .3117E-4
MEAN_MOTION_DDOT = 0

CCSDS_OMM_VERS = 2.0
CREATION_DATE  = 
ORIGINATOR     = 

OBJECT_NAME    = ACS3
OBJECT_ID      = 2024-077B
CENTER_NAME    = EARTH
REF_FRAME      = TEME
TIME_SYSTEM    = UTC
MEAN_ELEMENT_THEORY = SGP/SGP4

EPOCH          = 2026-02-26T20:08:31.968960
MEAN_MOTION    = 13.89066758
ECCENTRICITY   = .0052608
INCLINATION    = 97.2121
RA_OF_ASC_NODE = 1.3909
ARG_OF_PERICENTER = 106.7284
MEAN_ANOMALY   = 253.9662

EPHEMERIS_TYPE = 0
CLASSIFICATION_TYPE = U
NORAD_CAT_ID   = 59588
ELEMENT_SET_NO = 999
REV_AT_EPOCH   = 9269
BSTAR          = .1131E-1
MEAN_MOTION_DOT = .13865E-3
MEAN_MOTION_DDOT = 0

CCSDS_OMM_VERS = 2.0
CREATION_DATE  = 
ORIGINATOR     = 

OBJECT_NAME    = SZ-21 MODULE
OBJECT_ID      = 2025-246C
CENTER_NAME    = EARTH
REF_FRAME      = TEME
TIME_SYSTEM    = UTC
MEAN_ELEMENT_THEORY = SGP/SGP4

EPOCH          = 2026-02-26T16:09:22.254336
MEAN_MOTION    = 15.67604463
ECCENTRICITY   = .0001434
INCLINATION    = 41.4744
RA_OF_ASC_NODE = 271.1302
ARG_OF_PERICENTER = 288.0377
MEAN_ANOMALY   = 72.0308

EPHEMERIS_TYPE = 0
CLASSIFICATION_TYPE = U
NORAD_CAT_ID   = 66515
ELEMENT_SET_NO = 999
REV_AT_EPOCH   = 1634
BSTAR          = .33362E-3
MEAN_MOTION_DOT = .37285E-3
MEAN_MOTION_DDOT = 0

