GSLV R/B                
1 54149U 22138AN  26057.75614813  .00003117  00000+0  26958-3 0  9998
2 54149  87.3876 170.0209 0021466 185.0672 175.0346 14.96679584182298
ACS3                    
1 59588U 24077B   26057.83925891  .00013865  00000+0  11310-1 0  9999
2 59588  97.2121   1.3909 0052607 106.7284 253.9662 13.89066758 92691
SZ-21 MODULE            
1 66515U 25246C   26057.67317424  .00037285  00000+0  33362-3 0  9990
2 66515  41.4744 271.1302 0001433 288.0377  72.0308 15.67604463 16347
